[{"OBJECT_NAME":"HULIANWANG DIGUI-113","OBJECT_ID":"2025-285J","EPOCH":"2026-03-03T11:34:24.476736","MEAN_MOTION":13.29331369,"ECCENTRICITY":3.3e-6,"INCLINATION":50.0096,"RA_OF_ASC_NODE":164.7765,"ARG_OF_PERICENTER":334.2633,"MEAN_ANOMALY":25.8237,"EPHEMERIS_TYPE":0,"CLASSIFICATION_TYPE":"U","NORAD_CAT_ID":66923,"ELEMENT_SET_NO":999,"REV_AT_EPOCH":1200,"BSTAR":-0.00018025,"MEAN_MOTION_DOT":-2.08e-6,"MEAN_MOTION_DDOT":0},{"OBJECT_NAME":"HULIANWANG DIGUI-114","OBJECT_ID":"2025-287A","EPOCH":"2026-03-03T10:48:10.120896","MEAN_MOTION":13.2441552,"ECCENTRICITY":0.0001978,"INCLINATION":86.4978,"RA_OF_ASC_NODE":318.1171,"ARG_OF_PERICENTER":81.337,"MEAN_ANOMALY":278.7988,"EPHEMERIS_TYPE":0,"CLASSIFICATION_TYPE":"U","NORAD_CAT_ID":66953,"ELEMENT_SET_NO":999,"REV_AT_EPOCH":1134,"BSTAR":0.00012448,"MEAN_MOTION_DOT":6.8e-7,"MEAN_MOTION_DDOT":0},{"OBJECT_NAME":"HULIANWANG DIGUI-115","OBJECT_ID":"2025-287B","EPOCH":"2026-03-03T10:37:15.911328","MEAN_MOTION":13.2441556,"ECCENTRICITY":0.0002063,"INCLINATION":86.4994,"RA_OF_ASC_NODE":318.1284,"ARG_OF_PERICENTER":80.8366,"MEAN_ANOMALY":279.3001,"EPHEMERIS_TYPE":0,"CLASSIFICATION_TYPE":"U","NORAD_CAT_ID":66954,"ELEMENT_SET_NO":999,"REV_AT_EPOCH":1134,"BSTAR":0.00012874,"MEAN_MOTION_DOT":7.0e-7,"MEAN_MOTION_DDOT":0},{"OBJECT_NAME":"HULIANWANG DIGUI-116","OBJECT_ID":"2025-287C","EPOCH":"2026-03-03T10:26:23.885088","MEAN_MOTION":13.24415689,"ECCENTRICITY":0.0002054,"INCLINATION":86.4933,"RA_OF_ASC_NODE":318.0686,"ARG_OF_PERICENTER":80.833,"MEAN_ANOMALY":279.3037,"EPHEMERIS_TYPE":0,"CLASSIFICATION_TYPE":"U","NORAD_CAT_ID":66955,"ELEMENT_SET_NO":999,"REV_AT_EPOCH":1134,"BSTAR":0.00018682,"MEAN_MOTION_DOT":9.5e-7,"MEAN_MOTION_DDOT":0},{"OBJECT_NAME":"HULIANWANG DIGUI-117","OBJECT_ID":"2025-287D","EPOCH":"2026-03-03T12:04:21.733248","MEAN_MOTION":13.24413718,"ECCENTRICITY":0.0001394,"INCLINATION":86.4993,"RA_OF_ASC_NODE":318.0963,"ARG_OF_PERICENTER":23.3386,"MEAN_ANOMALY":336.7811,"EPHEMERIS_TYPE":0,"CLASSIFICATION_TYPE":"U","NORAD_CAT_ID":66956,"ELEMENT_SET_NO":999,"REV_AT_EPOCH":1135,"BSTAR":0.00016676,"MEAN_MOTION_DOT":8.6e-7,"MEAN_MOTION_DDOT":0},{"OBJECT_NAME":"HULIANWANG DIGUI-118","OBJECT_ID":"2025-287E","EPOCH":"2026-03-03T11:53:27.737952","MEAN_MOTION":13.2441503,"ECCENTRICITY":0.0002045,"INCLINATION":86.4969,"RA_OF_ASC_NODE":318.0705,"ARG_OF_PERICENTER":80.7743,"MEAN_ANOMALY":279.3622,"EPHEMERIS_TYPE":0,"CLASSIFICATION_TYPE":"U","NORAD_CAT_ID":66957,"ELEMENT_SET_NO":999,"REV_AT_EPOCH":1135,"BSTAR":0.00019567,"MEAN_MOTION_DOT":9.9e-7,"MEAN_MOTION_DDOT":0},{"OBJECT_NAME":"HULIANWANG DIGUI-119","OBJECT_ID":"2025-295A","EPOCH":"2026-03-02T18:39:00.522432","MEAN_MOTION":13.51600384,"ECCENTRICITY":1.501e-5,"INCLINATION":50.0036,"RA_OF_ASC_NODE":48.6911,"ARG_OF_PERICENTER":355.1515,"MEAN_ANOMALY":4.9366,"EPHEMERIS_TYPE":0,"CLASSIFICATION_TYPE":"U","NORAD_CAT_ID":67059,"ELEMENT_SET_NO":999,"REV_AT_EPOCH":1132,"BSTAR":0.00010827601,"MEAN_MOTION_DOT":-6.1e-7,"MEAN_MOTION_DDOT":0},{"OBJECT_NAME":"HULIANWANG DIGUI-120","OBJECT_ID":"2025-295B","EPOCH":"2026-03-03T01:26:36.894336","MEAN_MOTION":13.51383885,"ECCENTRICITY":0.000111,"INCLINATION":50.0047,"RA_OF_ASC_NODE":47.5238,"ARG_OF_PERICENTER":314.3064,"MEAN_ANOMALY":45.7727,"EPHEMERIS_TYPE":0,"CLASSIFICATION_TYPE":"U","NORAD_CAT_ID":67060,"ELEMENT_SET_NO":999,"REV_AT_EPOCH":1136,"BSTAR":0.00010052,"MEAN_MOTION_DOT":-6.6e-7,"MEAN_MOTION_DDOT":0},{"OBJECT_NAME":"HULIANWANG DIGUI-121","OBJECT_ID":"2025-295C","EPOCH":"2026-03-02T20:16:45.815808","MEAN_MOTION":13.51739032,"ECCENTRICITY":7.901e-5,"INCLINATION":50.0011,"RA_OF_ASC_NODE":48.3568,"ARG_OF_PERICENTER":312.6066,"MEAN_ANOMALY":47.4749,"EPHEMERIS_TYPE":0,"CLASSIFICATION_TYPE":"U","NORAD_CAT_ID":67061,"ELEMENT_SET_NO":999,"REV_AT_EPOCH":1133,"BSTAR":0.00010856682,"MEAN_MOTION_DOT":-6.1e-7,"MEAN_MOTION_DDOT":0},{"OBJECT_NAME":"HULIANWANG DIGUI-122","OBJECT_ID":"2025-295D","EPOCH":"2026-03-02T19:57:35.698752","MEAN_MOTION":13.52161141,"ECCENTRICITY":4.905e-5,"INCLINATION":50.004,"RA_OF_ASC_NODE":48.3122,"ARG_OF_PERICENTER":287.0373,"MEAN_ANOMALY":73.0455,"EPHEMERIS_TYPE":0,"CLASSIFICATION_TYPE":"U","NORAD_CAT_ID":67062,"ELEMENT_SET_NO":999,"REV_AT_EPOCH":1133,"BSTAR":0.00010894892,"MEAN_MOTION_DOT":-6.0e-7,"MEAN_MOTION_DDOT":0},{"OBJECT_NAME":"HULIANWANG DIGUI-123","OBJECT_ID":"2025-295E","EPOCH":"2026-03-03T01:06:40.599072","MEAN_MOTION":13.51648832,"ECCENTRICITY":0.0001534,"INCLINATION":50.0083,"RA_OF_ASC_NODE":47.4662,"ARG_OF_PERICENTER":339.6386,"MEAN_ANOMALY":20.4434,"EPHEMERIS_TYPE":0,"CLASSIFICATION_TYPE":"U","NORAD_CAT_ID":67063,"ELEMENT_SET_NO":999,"REV_AT_EPOCH":1136,"BSTAR":0.00012828,"MEAN_MOTION_DOT":-4.8e-7,"MEAN_MOTION_DDOT":0},{"OBJECT_NAME":"HULIANWANG DIGUI-124","OBJECT_ID":"2025-295F","EPOCH":"2026-03-03T00:58:18.354144","MEAN_MOTION":13.51837566,"ECCENTRICITY":7.99e-5,"INCLINATION":50.0003,"RA_OF_ASC_NODE":47.381,"ARG_OF_PERICENTER":325.6702,"MEAN_ANOMALY":34.4128,"EPHEMERIS_TYPE":0,"CLASSIFICATION_TYPE":"U","NORAD_CAT_ID":67064,"ELEMENT_SET_NO":999,"REV_AT_EPOCH":1136,"BSTAR":0.00010184,"MEAN_MOTION_DOT":-6.5e-7,"MEAN_MOTION_DDOT":0},{"OBJECT_NAME":"HULIANWANG DIGUI-125","OBJECT_ID":"2025-295G","EPOCH":"2026-03-03T00:48:52.608672","MEAN_MOTION":13.51894465,"ECCENTRICITY":0.0001162,"INCLINATION":49.9994,"RA_OF_ASC_NODE":47.3388,"ARG_OF_PERICENTER":349.2152,"MEAN_ANOMALY":10.8705,"EPHEMERIS_TYPE":0,"CLASSIFICATION_TYPE":"U","NORAD_CAT_ID":67065,"ELEMENT_SET_NO":999,"REV_AT_EPOCH":1136,"BSTAR":0.00010069,"MEAN_MOTION_DOT":-6.6e-7,"MEAN_MOTION_DDOT":0},{"OBJECT_NAME":"HULIANWANG DIGUI-126","OBJECT_ID":"2025-295H","EPOCH":"2026-03-03T02:24:53.250048","MEAN_MOTION":13.51762311,"ECCENTRICITY":9.26e-5,"INCLINATION":49.9965,"RA_OF_ASC_NODE":47.0294,"ARG_OF_PERICENTER":93.487,"MEAN_ANOMALY":266.6118,"EPHEMERIS_TYPE":0,"CLASSIFICATION_TYPE":"U","NORAD_CAT_ID":67066,"ELEMENT_SET_NO":999,"REV_AT_EPOCH":1137,"BSTAR":7.1323e-5,"MEAN_MOTION_DOT":-8.5e-7,"MEAN_MOTION_DDOT":0},{"OBJECT_NAME":"HULIANWANG DIGUI-127","OBJECT_ID":"2025-295J","EPOCH":"2026-03-03T02:09:41.277312","MEAN_MOTION":13.51667529,"ECCENTRICITY":2.18e-5,"INCLINATION":50.0052,"RA_OF_ASC_NODE":46.9878,"ARG_OF_PERICENTER":340.3613,"MEAN_ANOMALY":19.7261,"EPHEMERIS_TYPE":0,"CLASSIFICATION_TYPE":"U","NORAD_CAT_ID":67067,"ELEMENT_SET_NO":999,"REV_AT_EPOCH":1137,"BSTAR":-0.0002763,"MEAN_MOTION_DOT":-3.13e-6,"MEAN_MOTION_DDOT":0},{"OBJECT_NAME":"HULIANWANG DIGUI-128","OBJECT_ID":"2025-311A","EPOCH":"2026-03-03T02:56:52.492992","MEAN_MOTION":13.3647454,"ECCENTRICITY":6.08e-5,"INCLINATION":50.0073,"RA_OF_ASC_NODE":136.0394,"ARG_OF_PERICENTER":7.5983,"MEAN_ANOMALY":352.4902,"EPHEMERIS_TYPE":0,"CLASSIFICATION_TYPE":"U","NORAD_CAT_ID":67236,"ELEMENT_SET_NO":999,"REV_AT_EPOCH":923,"BSTAR":0.00012447,"MEAN_MOTION_DOT":-6.2e-7,"MEAN_MOTION_DDOT":0}]
